HIMAWARI-8              
1 40267U 14060A   24227.72606308 -.00000267  00000+0  00000+0 0  9993
2 40267   0.0476 254.3005 0000841 258.2721 213.1033  1.00272973 36022
